start=new Date('2022-11-13T00:00:00.000Z').valueOf();
sats=[{"EPOCH":"2022-11-12T18:28:25.169664","DECAY_DATE":null,"RA_OF_ASC_NODE":"54.1379","CLASSIFICATION_TYPE":"U","ARG_OF_PERICENTER":"33.8020","EPHEMERIS_TYPE":"0","REV_AT_EPOCH":"4005","MEAN_MOTION":"15.08848450","RCS_SIZE":"LARGE","MEAN_ANOMALY":"326.3114","TLE_LINE2":"2 51870  53.2163  54.1379 0002234  33.8020 326.3114 15.08848450 40051","GP_ID":"217587717","LAUNCH_DATE":"2022-03-03","ECCENTRICITY":"0.00022340","SITE":"AFETR","INCLINATION":"53.2163","OBJECT_TYPE":"PAYLOAD","ELEMENT_SET_NO":"999","BSTAR":"0.00040186000000","OBJECT_ID":"2022-022U","OBJECT_NAME":"STARLINK-3591","FILE":"3652635","COUNTRY_CODE":"US","CENTER_NAME":"EARTH","MEAN_MOTION_DOT":"0.00006115","MEAN_MOTION_DDOT":"0.0000000000000","TLE_LINE1":"1 51870U 22022U   22316.76973576  .00006115  00000-0  40186-3 0  9998","NORAD_CAT_ID":"51870","PERIAPSIS":"538.174","APOAPSIS":"541.265","REF_FRAME":"TEME","MEAN_ELEMENT_THEORY":"SGP4","TIME_SYSTEM":"UTC","PERIOD":"95.437","SEMIMAJOR_AXIS":"6917.855"},{"RCS_SIZE":"LARGE","TLE_LINE2":"2 51871  53.2174  54.4862 0001964  49.3670 310.7492 15.08854735 40101","MEAN_ANOMALY":"310.7492","GP_ID":"217588469","LAUNCH_DATE":"2022-03-03","ECCENTRICITY":"0.00019640","SITE":"AFETR","RA_OF_ASC_NODE":"54.4862","DECAY_DATE":null,"EPOCH":"2022-11-12T16:37:07.203936","CLASSIFICATION_TYPE":"U","ARG_OF_PERICENTER":"49.3670","EPHEMERIS_TYPE":"0","REV_AT_EPOCH":"4010","MEAN_MOTION":"15.08854735","NORAD_CAT_ID":"51871","PERIAPSIS":"538.342","TLE_LINE1":"1 51871U 22022V   22316.69244449  .00008197  00000-0  53227-3 0  9993","REF_FRAME":"TEME","MEAN_ELEMENT_THEORY":"SGP4","TIME_SYSTEM":"UTC","APOAPSIS":"541.059","PERIOD":"95.437","SEMIMAJOR_AXIS":"6917.835","INCLINATION":"53.2174","OBJECT_TYPE":"PAYLOAD","ELEMENT_SET_NO":"999","BSTAR":"0.00053227000000","FILE":"3652635","OBJECT_ID":"2022-022V","OBJECT_NAME":"STARLINK-3567","MEAN_MOTION_DOT":"0.00008197","MEAN_MOTION_DDOT":"0.0000000000000","COUNTRY_CODE":"US","CENTER_NAME":"EARTH"},{"SEMIMAJOR_AXIS":"6917.810","PERIOD":"95.436","APOAPSIS":"540.911","TIME_SYSTEM":"UTC","MEAN_ELEMENT_THEORY":"SGP4","REF_FRAME":"TEME","TLE_LINE1":"1 51872U 22022W   22316.76603363  .00011321  00000-0  72777-3 0  9990","PERIAPSIS":"538.438","NORAD_CAT_ID":"51872","CENTER_NAME":"EARTH","COUNTRY_CODE":"US","MEAN_MOTION_DOT":"0.00011321","MEAN_MOTION_DDOT":"0.0000000000000","OBJECT_NAME":"STARLINK-3554","OBJECT_ID":"2022-022W","FILE":"3652635","ELEMENT_SET_NO":"999","OBJECT_TYPE":"PAYLOAD","BSTAR":"0.00072777000000","INCLINATION":"53.2178","SITE":"AFETR","ECCENTRICITY":"0.00017870","LAUNCH_DATE":"2022-03-03","GP_ID":"217588710","MEAN_ANOMALY":"316.3856","TLE_LINE2":"2 51872  53.2178  54.1607 0001787  43.7277 316.3856 15.08863173 40005","RCS_SIZE":"LARGE","MEAN_MOTION":"15.08863173","REV_AT_EPOCH":"4000","EPHEMERIS_TYPE":"0","ARG_OF_PERICENTER":"43.7277","CLASSIFICATION_TYPE":"U","EPOCH":"2022-11-12T18:23:05.305632","DECAY_DATE":null,"RA_OF_ASC_NODE":"54.1607"},{"FILE":"3652392","OBJECT_NAME":"STARLINK-3582","OBJECT_ID":"2022-022X","MEAN_MOTION_DDOT":"0.0000000000000","MEAN_MOTION_DOT":"0.00004640","CENTER_NAME":"EARTH","COUNTRY_CODE":"US","ELEMENT_SET_NO":"999","OBJECT_TYPE":"PAYLOAD","BSTAR":"0.00030942000000","INCLINATION":"53.2194","SEMIMAJOR_AXIS":"6917.880","PERIOD":"95.438","PERIAPSIS":"538.453","NORAD_CAT_ID":"51873","TLE_LINE1":"1 51873U 22022X   22316.54891236  .00004640  00000-0  30942-3 0  9999","TIME_SYSTEM":"UTC","REF_FRAME":"TEME","MEAN_ELEMENT_THEORY":"SGP4","APOAPSIS":"541.038","REV_AT_EPOCH":"3997","EPHEMERIS_TYPE":"0","MEAN_MOTION":"15.08839995","RA_OF_ASC_NODE":"55.1151","DECAY_DATE":null,"EPOCH":"2022-11-12T13:10:26.027904","ARG_OF_PERICENTER":"44.4914","CLASSIFICATION_TYPE":"U","LAUNCH_DATE":"2022-03-03","GP_ID":"217531390","SITE":"AFETR","ECCENTRICITY":"0.00018680","RCS_SIZE":"LARGE","TLE_LINE2":"2 51873  53.2194  55.1151 0001868  44.4914 315.6228 15.08839995 39979","MEAN_ANOMALY":"315.6228"},{"SEMIMAJOR_AXIS":"6917.866","PERIOD":"95.437","TLE_LINE1":"1 51874U 22022Y   22316.75499844  .00002016  00000-0  14473-3 0  9998","PERIAPSIS":"538.431","NORAD_CAT_ID":"51874","APOAPSIS":"541.031","TIME_SYSTEM":"UTC","REF_FRAME":"TEME","MEAN_ELEMENT_THEORY":"SGP4","OBJECT_ID":"2022-022Y","OBJECT_NAME":"STARLINK-3574","FILE":"3652635","CENTER_NAME":"EARTH","COUNTRY_CODE":"US","MEAN_MOTION_DOT":"0.00002016","MEAN_MOTION_DDOT":"0.0000000000000","OBJECT_TYPE":"PAYLOAD","ELEMENT_SET_NO":"999","BSTAR":"0.00014473000000","INCLINATION":"53.2188","LAUNCH_DATE":"2022-03-03","GP_ID":"217588218","SITE":"AFETR","ECCENTRICITY":"0.00018790","RCS_SIZE":"LARGE","MEAN_ANOMALY":"315.9142","TLE_LINE2":"2 51874  53.2188  54.1995 0001879  44.2000 315.9142 15.08844759 39998","REV_AT_EPOCH":"3999","EPHEMERIS_TYPE":"0","MEAN_MOTION":"15.08844759","EPOCH":"2022-11-12T18:07:11.865216","DECAY_DATE":null,"RA_OF_ASC_NODE":"54.1995","ARG_OF_PERICENTER":"44.2000","CLASSIFICATION_TYPE":"U"},{"SITE":"AFETR","ECCENTRICITY":"0.00020300","LAUNCH_DATE":"2022-03-03","GP_ID":"217588970","TLE_LINE2":"2 51875  53.2183  54.2709 0002030  42.7596 317.3554 15.08846854 40006","MEAN_ANOMALY":"317.3554","RCS_SIZE":"LARGE","MEAN_MOTION":"15.08846854","REV_AT_EPOCH":"4000","EPHEMERIS_TYPE":"0","ARG_OF_PERICENTER":"42.7596","CLASSIFICATION_TYPE":"U","RA_OF_ASC_NODE":"54.2709","DECAY_DATE":null,"EPOCH":"2022-11-12T17:47:23.197344","SEMIMAJOR_AXIS":"6917.859","PERIOD":"95.437","TIME_SYSTEM":"UTC","REF_FRAME":"TEME","MEAN_ELEMENT_THEORY":"SGP4","APOAPSIS":"541.129","PERIAPSIS":"538.320","NORAD_CAT_ID":"51875","TLE_LINE1":"1 51875U 22022Z   22316.74124071  .00006666  00000-0  43642-3 0  9990","MEAN_MOTION_DDOT":"0.0000000000000","MEAN_MOTION_DOT":"0.00006666","CENTER_NAME":"EARTH","COUNTRY_CODE":"US","FILE":"3652635","OBJECT_ID":"2022-022Z","OBJECT_NAME":"STARLINK-3585","BSTAR":"0.00043642000000","OBJECT_TYPE":"PAYLOAD","ELEMENT_SET_NO":"999","INCLINATION":"53.2183"},{"MEAN_MOTION":"15.08842183","EPHEMERIS_TYPE":"0","REV_AT_EPOCH":"3997","CLASSIFICATION_TYPE":"U","ARG_OF_PERICENTER":"40.1477","EPOCH":"2022-11-12T13:15:46.003392","DECAY_DATE":null,"RA_OF_ASC_NODE":"55.0978","ECCENTRICITY":"0.00022880","SITE":"AFETR","GP_ID":"217563527","LAUNCH_DATE":"2022-03-03","MEAN_ANOMALY":"319.9684","TLE_LINE2":"2 51876  53.2184  55.0978 0002288  40.1477 319.9684 15.08842183 39977","RCS_SIZE":"LARGE","COUNTRY_CODE":"US","CENTER_NAME":"EARTH","MEAN_MOTION_DOT":"0.00007577","MEAN_MOTION_DDOT":"0.0000000000000","OBJECT_NAME":"STARLINK-3583","OBJECT_ID":"2022-022AA","FILE":"3652541","INCLINATION":"53.2184","BSTAR":"0.00049360000000","OBJECT_TYPE":"PAYLOAD","ELEMENT_SET_NO":"999","PERIOD":"95.437","SEMIMAJOR_AXIS":"6917.874","APOAPSIS":"541.322","REF_FRAME":"TEME","MEAN_ELEMENT_THEORY":"SGP4","TIME_SYSTEM":"UTC","TLE_LINE1":"1 51876U 22022AA  22316.55261578  .00007577  00000-0  49360-3 0  9999","NORAD_CAT_ID":"51876","PERIAPSIS":"538.156"},{"OBJECT_TYPE":"PAYLOAD","BSTAR":"0.00120440000000","ELEMENT_SET_NO":"999","INCLINATION":"53.2184","MEAN_MOTION_DOT":"0.00018944","MEAN_MOTION_DDOT":"0.0000000000000","CENTER_NAME":"EARTH","COUNTRY_CODE":"US","FILE":"3652635","OBJECT_ID":"2022-022AB","OBJECT_NAME":"STARLINK-3556","TIME_SYSTEM":"UTC","REF_FRAME":"TEME","MEAN_ELEMENT_THEORY":"SGP4","APOAPSIS":"541.157","PERIAPSIS":"538.201","NORAD_CAT_ID":"51877","TLE_LINE1":"1 51877U 22022AB  22316.66759643  .00018944  00000-0  12044-2 0  9995","SEMIMAJOR_AXIS":"6917.814","PERIOD":"95.436","ARG_OF_PERICENTER":"42.5697","CLASSIFICATION_TYPE":"U","RA_OF_ASC_NODE":"44.5901","DECAY_DATE":null,"EPOCH":"2022-11-12T16:01:20.331552","MEAN_MOTION":"15.08861760","REV_AT_EPOCH":"4012","EPHEMERIS_TYPE":"0","TLE_LINE2":"2 51877  53.2184  44.5901 0002136  42.5697 317.5461 15.08861760 40127","MEAN_ANOMALY":"317.5461","RCS_SIZE":"LARGE","SITE":"AFETR","ECCENTRICITY":"0.00021360","GP_ID":"217587468","LAUNCH_DATE":"2022-03-03"},{"ARG_OF_PERICENTER":"39.1708","CLASSIFICATION_TYPE":"U","DECAY_DATE":null,"EPOCH":"2022-11-12T13:05:09.212064","RA_OF_ASC_NODE":"55.1475","MEAN_MOTION":"15.08842869","REV_AT_EPOCH":"3997","EPHEMERIS_TYPE":"0","MEAN_ANOMALY":"320.9431","TLE_LINE2":"2 51878  53.2187  55.1475 0002043  39.1708 320.9431 15.08842869 39972","RCS_SIZE":"LARGE","SITE":"AFETR","ECCENTRICITY":"0.00020430","GP_ID":"217532141","LAUNCH_DATE":"2022-03-03","ELEMENT_SET_NO":"999","OBJECT_TYPE":"PAYLOAD","BSTAR":"0.00025259000000","INCLINATION":"53.2187","CENTER_NAME":"EARTH","COUNTRY_CODE":"US","MEAN_MOTION_DOT":"0.00003734","MEAN_MOTION_DDOT":"0.0000000000000","OBJECT_NAME":"STARLINK-3575","OBJECT_ID":"2022-022AC","FILE":"3652392","APOAPSIS":"541.150","TIME_SYSTEM":"UTC","MEAN_ELEMENT_THEORY":"SGP4","REF_FRAME":"TEME","TLE_LINE1":"1 51878U 22022AC  22316.54524551  .00003734  00000-0  25259-3 0  9995","PERIAPSIS":"538.323","NORAD_CAT_ID":"51878","SEMIMAJOR_AXIS":"6917.872","PERIOD":"95.437"},{"SEMIMAJOR_AXIS":"6917.871","PERIOD":"95.437","TIME_SYSTEM":"UTC","MEAN_ELEMENT_THEORY":"SGP4","REF_FRAME":"TEME","APOAPSIS":"541.048","PERIAPSIS":"538.423","NORAD_CAT_ID":"51879","TLE_LINE1":"1 51879U 22022AD  22316.52775392  .00003559  00000-0  24158-3 0  9997","MEAN_MOTION_DDOT":"0.0000000000000","MEAN_MOTION_DOT":"0.00003559","CENTER_NAME":"EARTH","COUNTRY_CODE":"US","FILE":"3652392","OBJECT_ID":"2022-022AD","OBJECT_NAME":"STARLINK-3572","BSTAR":"0.00024158000000","OBJECT_TYPE":"PAYLOAD","ELEMENT_SET_NO":"999","INCLINATION":"53.2187","SITE":"AFETR","ECCENTRICITY":"0.00018970","LAUNCH_DATE":"2022-03-03","GP_ID":"217532893","TLE_LINE2":"2 51879  53.2187  45.2166 0001897  37.5849 322.5275 15.08843178 40109","MEAN_ANOMALY":"322.5275","RCS_SIZE":"LARGE","MEAN_MOTION":"15.08843178","REV_AT_EPOCH":"4010","EPHEMERIS_TYPE":"0","ARG_OF_PERICENTER":"37.5849","CLASSIFICATION_TYPE":"U","RA_OF_ASC_NODE":"45.2166","DECAY_DATE":null,"EPOCH":"2022-11-12T12:39:57.938688"}];
